STARLINK-31303          
1 59239U 24049J   26068.51233289 -.00000356  00000+0 -34210-5 0  9992
2 59239  43.0029 133.6902 0001716 276.0007  84.0649 15.27569977112507
HAWK-11C                
1 62381U 24247E   26068.51221537  .00009223  00000+0  33290-3 0  9992
2 62381  45.0045 114.8762 0005900 329.7040  30.3502 15.28848020 67743
